[{"OBJECT_NAME":"STARLINK-5703","OBJECT_ID":"2023-020AA","EPOCH":"2026-03-09T22:00:01.999584","MEAN_MOTION":15.13369533,"ECCENTRICITY":8.937e-5,"INCLINATION":43.0001,"RA_OF_ASC_NODE":2.8646,"ARG_OF_PERICENTER":241.2923,"MEAN_ANOMALY":341.0522,"EPHEMERIS_TYPE":0,"CLASSIFICATION_TYPE":"U","NORAD_CAT_ID":55593,"ELEMENT_SET_NO":999,"REV_AT_EPOCH":567,"BSTAR":0.067030028,"MEAN_MOTION_DOT":0.01321508,"MEAN_MOTION_DDOT":0},{"OBJECT_NAME":"TRANSPORTER-14 OBJECT E","OBJECT_ID":"2025-135E","EPOCH":"2026-03-09T20:41:00.309696","MEAN_MOTION":15.23884665,"ECCENTRICITY":0.00053958,"INCLINATION":97.4603,"RA_OF_ASC_NODE":185.3351,"ARG_OF_PERICENTER":147.6959,"MEAN_ANOMALY":212.461,"EPHEMERIS_TYPE":0,"CLASSIFICATION_TYPE":"U","NORAD_CAT_ID":64532,"ELEMENT_SET_NO":999,"REV_AT_EPOCH":3978,"BSTAR":0.0006581062,"MEAN_MOTION_DOT":0.0001584,"MEAN_MOTION_DDOT":0}]
